id,spkid,full_name,pdes,name,prefix,neo,pha,H,diameter,albedo,diameter_sigma,orbit_id,epoch,epoch_mjd,epoch_cal,equinox,e,a,q,i,om,w,ma,ad,n,tp,tp_cal,per,per_y,moid,moid_ld,sigma_e,sigma_a,sigma_q,sigma_i,sigma_om,sigma_w,sigma_ma,sigma_ad,sigma_n,sigma_tp,sigma_per,class,rms
a0000121,2000121,   121 Hermione,121,Hermione,,N,N,7.3,209,0.0482,4.7,JPL 104,2459000.5,59000,20200531,J2000,0.129838702,3.461567485,3.012122055,7.584410392,73.11272838,296.8740224,281.2343012,3.911012915,0.153036445,2459515.186,20211027.69,2352.380827,6.4404677,2.02248,787.0885416,3.02E-08,1.10E-08,1.06E-07,3.17E-06,2.28E-05,2.60E-05,1.39E-05,1.25E-08,7.31E-10,9.24E-05,1.12E-05,OMB,0.4174
a0000122,2000122,   122 Gerda,122,Gerda,,N,N,7.7,70.676,0.297,0.912,JPL 39,2459000.5,59000,20200531,J2000,0.031266384,3.223255924,3.122476366,1.640572814,178.1228153,321.4881071,41.98802783,3.324035482,0.170318526,2458753.974,20190927.47,2113.686683,5.786958748,2.1354,831.033618,3.96E-08,1.32E-08,1.27E-07,4.54E-06,0.00014283,0.00015755,6.64E-05,1.37E-08,1.05E-09,0.00038951,1.30E-05,OMB,0.50516
a0000123,2000123,   123 Brunhild,123,Brunhild,,N,N,8.9,45.209,0.261,1.883,JPL 37,2459000.5,59000,20200531,J2000,0.120620359,2.695223627,2.370124786,6.414358259,307.7251494,125.6747998,49.0521924,3.020322469,0.222747001,2458780.285,20191023.79,1616.183373,4.424868921,1.39205,541.7440985,3.65E-08,8.54E-09,9.90E-08,4.76E-06,3.54E-05,4.08E-05,1.97E-05,9.57E-09,1.06E-09,8.82E-05,7.68E-06,MBA,0.45954
a0000124,2000124,   124 Alkeste,124,Alkeste,,N,N,8.1,88.648,0.128,1.651,JPL 126,2459000.5,59000,20200531,J2000,0.07551614,2.629926725,2.43132481,2.957464186,187.9747942,62.15468269,306.4612727,2.82852864,0.231093964,2459232.175,20210117.68,1557.807891,4.26504556,1.41902,552.2400134,3.55E-08,6.58E-09,9.35E-08,4.15E-06,6.81E-05,7.32E-05,2.81E-05,7.08E-09,8.67E-10,0.00012187,5.85E-06,MBA,0.50224
a0000125,2000125,   125 Liberatrix,125,Liberatrix,,N,N,8.8,48.418,0.182,0.533,JPL 80,2459000.5,59000,20200531,J2000,0.077941813,2.743653518,2.529808188,4.664196776,168.9812265,110.0107042,250.823906,2.957498849,0.216875341,2459503.905,20211016.4,1659.939752,4.544667356,1.51826,590.8612442,3.47E-08,9.03E-09,9.57E-08,4.16E-06,4.60E-05,5.34E-05,2.84E-05,9.73E-09,1.07E-09,0.00013149,8.19E-06,MBA,0.38078
a0000126,2000126,   126 Velleda,126,Velleda,,N,N,9.2,44.82,0.1723,1.3,JPL 95,2459000.5,59000,20200531,J2000,0.106125703,2.440063529,2.181110071,2.923122915,23.27422166,327.8352501,305.0832523,2.699016987,0.258584431,2459212.875,20201229.37,1392.195185,3.811622683,1.17597,457.6522449,3.41E-08,5.40E-09,8.35E-08,3.86E-06,7.68E-05,7.91E-05,2.03E-05,5.97E-09,8.58E-10,7.88E-05,4.62E-06,MBA,0.49081
a0000127,2000127,   127 Johanna,127,Johanna,,N,N,8.6,122,0.042,,JPL 108,2459000.5,59000,20200531,J2000,0.066771814,2.75550928,2.571518928,8.243907936,31.14508113,93.54010376,10.58742785,2.939499632,0.215477167,2458951.365,20200411.87,1670.710661,4.574156498,1.60311,623.8823187,3.89E-08,9.83E-09,1.10E-07,4.25E-06,2.93E-05,4.44E-05,3.23E-05,1.05E-08,1.15E-09,0.0001499,8.94E-06,MBA,0.44606
a0000128,2000128,   128 Nemesis,128,Nemesis,,N,N,7.8,162.515,0.067,1.296,JPL 107,2459000.5,59000,20200531,J2000,0.127675203,2.748942609,2.397970804,6.245306385,76.23770465,303.6201497,158.5974916,3.099914415,0.216249725,2458267.1,20180528.6,1664.741999,4.557815193,1.40776,547.8579592,3.68E-08,7.47E-09,1.01E-07,4.04E-06,3.74E-05,4.04E-05,1.61E-05,8.42E-09,8.81E-10,7.37E-05,6.78E-06,MBA,0.49332
a0000129,2000129,   129 Antigone,129,Antigone,,N,N,7.2,113,0.151,,JPL 100,2459000.5,59000,20200531,J2000,0.212593821,2.87035858,2.260138082,12.26692888,135.6670026,111.2466526,21.0557946,3.480579078,0.202674842,2458896.61,20200217.11,1776.244142,4.863091421,1.2805,498.332185,2.81E-08,5.86E-09,8.14E-08,3.61E-06,1.52E-05,1.75E-05,1.06E-05,7.10E-09,6.20E-10,5.20E-05,5.44E-06,MBA,0.49351
a0000130,2000130,   130 Elektra,130,Elektra,,N,N,7.1,180.652,0.086,2.698,JPL 110,2459000.5,59000,20200531,J2000,0.208908938,3.12526438,2.472368718,22.78069166,145.0130138,237.5204607,17.22309326,3.778160041,0.178391407,2458903.953,20200224.45,2018.034423,5.525077133,1.54197,600.0884649,3.44E-08,1.05E-08,1.08E-07,3.21E-06,1.07E-05,1.39E-05,1.13E-05,1.27E-08,8.97E-10,6.30E-05,1.01E-05,MBA,0.40809
a0000131,2000131,   131 Vala,131,Vala,,N,N,9.9,31.337,0.246,0.304,JPL 69,2459000.5,59000,20200531,J2000,0.067371239,2.431897276,2.268057344,4.96088711,65.65618106,160.6156448,293.1022347,2.595737209,0.259888004,2459257.91,20210212.41,1385.212068,3.79250395,1.25861,489.8132537,3.52E-08,6.16E-09,8.66E-08,3.89E-06,4.26E-05,5.16E-05,3.01E-05,6.58E-09,9.88E-10,0.00011616,5.26E-06,MBA,0.37643
a0000132,2000132,   132 Aethra,132,Aethra,,N,N,8.9,42.87,0.199,1.6,JPL 52,2459000.5,59000,20200531,J2000,0.389559419,2.608140003,1.5921145,24.99379165,258.3925108,255.1758739,6.022924381,3.624165507,0.233995617,2458974.761,20200505.26,1538.490353,4.212157024,0.772818,300.7575811,4.41E-08,6.48E-09,1.15E-07,4.37E-06,1.11E-05,1.20E-05,7.84E-06,9.00E-09,8.72E-10,3.34E-05,5.73E-06,MCA,0.38373
a0000133,2000133,   133 Cyrene,133,Cyrene,,N,N,7.8,72.175,0.279,0.932,JPL 76,2459000.5,59000,20200531,J2000,0.135228451,3.06463429,2.650208543,7.21360214,319.0050434,290.1309255,213.0547859,3.479060036,0.183711393,2459800.37,20220808.87,1959.595402,5.365079813,1.64729,641.0758493,3.74E-08,1.39E-08,1.12E-07,4.45E-06,3.36E-05,3.79E-05,1.97E-05,1.57E-08,1.25E-09,0.0001099,1.33E-05,MBA,0.40383
a0000134,2000134,   134 Sophrosyne,134,Sophrosyne,,N,N,9,108,0.0364,,JPL 108,2459000.5,59000,20200531,J2000,0.115571243,2.565019118,2.268576669,11.59915655,345.922286,84.67821159,206.2033465,2.861461566,0.239920946,2459641.531,20220303.03,1500.494253,4.108129372,1.31726,512.6380742,3.21E-08,5.97E-09,8.10E-08,3.93E-06,1.68E-05,2.38E-05,1.70E-05,6.66E-09,8.38E-10,7.14E-05,5.24E-06,MBA,0.44099
a0000135,2000135,   135 Hertha,135,Hertha,,N,N,8.2,79.24,0.1436,2,JPL 106,2459000.5,59000,20200531,J2000,0.206906605,2.428364053,1.925919491,2.303866066,343.5718893,340.1813407,82.26722833,2.930808616,0.260455409,2458684.641,20190720.14,1382.194371,3.784241947,0.913937,355.6768623,3.68E-08,5.75E-09,9.00E-08,4.22E-06,9.80E-05,9.85E-05,1.12E-05,6.94E-09,9.25E-10,4.24E-05,4.91E-06,MBA,0.41959
a0000136,2000136,   136 Austria,136,Austria,,N,N,9.7,36.893,0.201,0.518,JPL 69,2459000.5,59000,20200531,J2000,0.085300039,2.287367628,2.092255081,9.577562706,186.4300642,132.5611749,331.2586038,2.482480174,0.284905031,2459101.381,20200908.88,1263.57895,3.459490623,1.09328,425.4717776,3.56E-08,5.90E-09,8.11E-08,4.75E-06,2.13E-05,3.49E-05,2.91E-05,6.41E-09,1.10E-09,0.00010211,4.89E-06,MBA,0.42402
a0000137,2000137,   137 Meliboea,137,Meliboea,,N,N,8.1,128.678,0.065,0.533,JPL 103,2459000.5,59000,20200531,J2000,0.211896019,3.124649919,2.462549042,13.42813809,202.2139386,107.3649839,110.529069,3.786750796,0.17844403,2458381.095,20180919.6,2017.439301,5.523447778,1.48996,579.8477332,3.26E-08,9.08E-09,1.04E-07,3.52E-06,1.18E-05,1.42E-05,8.70E-06,1.10E-08,7.78E-10,4.74E-05,8.80E-06,MBA,0.43883
a0000138,2000138,   138 Tolosa,138,Tolosa,,N,N,8.8,52.905,0.273,1.048,JPL 71,2459000.5,59000,20200531,J2000,0.162861802,2.449489622,2.050561327,3.202500525,54.74619956,260.5141174,348.6774262,2.848417916,0.257093246,2459044.541,20200714.04,1400.270155,3.833730746,1.03983,404.6706411,3.57E-08,7.97E-09,8.91E-08,3.98E-06,7.14E-05,7.26E-05,1.60E-05,9.26E-09,1.25E-09,6.22E-05,6.83E-06,MBA,0.48797
a0000139,2000139,   139 Juewa,139,Juewa,,N,N,8,151.116,0.052,1.596,JPL 103,2459000.5,59000,20200531,J2000,0.174553974,2.781680954,2.296127488,10.90937388,1.817387607,165.6082671,357.6701104,3.26723442,0.212443329,2459011.467,20200610.97,1694.569566,4.639478619,1.30401,507.4815717,3.03E-08,6.48E-09,8.51E-08,3.81E-06,1.71E-05,1.99E-05,1.06E-05,7.61E-09,7.42E-10,4.98E-05,5.92E-06,MBA,0.49067
a0000140,2000140,   140 Siwa,140,Siwa,,N,N,8.4,109.79,0.0676,3,JPL 149,2459000.5,59000,20200531,J2000,0.214140102,2.734694958,2.1490871,3.185538931,107.1777401,196.81529,145.7487008,3.320302816,0.217941903,2458331.75,20180801.25,1651.816355,4.522426707,1.13408,441.3499136,3.46E-08,7.76E-09,9.34E-08,3.68E-06,5.99E-05,6.04E-05,9.10E-06,9.42E-09,9.28E-10,4.10E-05,7.03E-06,MBA,0.48048
a0000141,2000141,   141 Lumen,141,Lumen,,N,N,8.5,117.916,0.067,1.361,JPL 69,2459000.5,59000,20200531,J2000,0.214597479,2.6652844,2.093321088,11.89758004,318.485389,57.83802119,249.9976522,3.237247712,0.226510708,2459486.139,20210928.64,1589.328835,4.351345203,1.11988,435.8236996,4.06E-08,7.13E-09,1.07E-07,4.94E-06,2.15E-05,2.46E-05,1.33E-05,8.66E-09,9.09E-10,5.96E-05,6.38E-06,MBA,0.39264
a0000142,2000142,   142 Polana,142,Polana,,N,N,10.3,54.812,0.047,0.277,JPL 39,2459000.5,59000,20200531,J2000,0.135074532,2.417934193,2.091332863,2.239535888,291.2203729,291.8328957,147.9924875,2.744535524,0.262142453,2458435.95,20181113.45,1373.299122,3.759888081,1.08377,421.7707709,2.99E-08,6.37E-09,7.17E-08,3.86E-06,9.05E-05,9.19E-05,1.71E-05,7.22E-09,1.04E-09,6.49E-05,5.42E-06,MBA,0.44586
a0000143,2000143,   143 Adria,143,Adria,,N,N,9.1,95.377,0.044,0.698,JPL 47,2459000.5,59000,20200531,J2000,0.074151432,2.760501856,2.555806689,11.44438026,332.9805555,252.3411577,167.1293037,2.965197023,0.214892871,2458222.767,20180414.27,1675.253339,4.586593672,1.57661,613.5693137,3.23E-08,8.88E-09,8.73E-08,3.73E-06,1.69E-05,3.09E-05,2.72E-05,9.54E-09,1.04E-09,0.00012605,8.09E-06,MBA,0.42035
a0000144,2000144,   144 Vibilia,144,Vibilia,,N,N,8.1,142.38,0.0597,2.6,JPL 99,2459000.5,59000,20200531,J2000,0.234745795,2.655401409,2.032057095,4.814051372,76.19487026,294.6089632,98.46567414,3.278745722,0.227776441,2458568.209,20190325.71,1580.497084,4.327165184,1.03786,403.9039762,3.74E-08,8.63E-09,9.81E-08,4.22E-06,5.16E-05,5.24E-05,1.15E-05,1.07E-08,1.11E-09,4.94E-05,7.70E-06,MBA,0.46688
